0 SL-19 DEB
1 23564U 94085V   13281.05781503 -.00000047  00000-0 -96733-4 0   772
2 23564 064.9930 147.1523 0198495 317.6650 198.6791 11.34758288763082
0 SL-19 DEB
1 23564U 94085V   13284.98499110 -.00000039  00000-0  10000-3 0   780
2 23564 065.0015 140.7511 0198953 316.9016 041.6548 11.34758864763538
0 SL-19 DEB
1 23564U 94085V   13287.01195248 -.00000039  00000-0  10000-3 0   793
2 23564 065.0004 137.4451 0198052 316.3237 042.2087 11.34758566763760
0 SL-19 DEB
1 23564U 94085V   13289.57483424 -.00000041  00000-0  57128-4 0   800
2 23564 064.9922 133.2594 0198313 315.9956 071.7044 11.34758804764050
0 SL-19 DEB
1 23564U 94085V   13292.05483866 -.00000031  00000-0  31952-3 0   813
2 23564 064.9915 129.2144 0198487 315.4715 122.8586 11.34759169764333
